[{"OBJECT_NAME":"HUYGENS","OBJECT_ID":"2023-001CN","EPOCH":"2026-03-09T22:29:59.612064","MEAN_MOTION":15.38188083,"ECCENTRICITY":0.00114239,"INCLINATION":97.3353,"RA_OF_ASC_NODE":136.098,"ARG_OF_PERICENTER":84.7178,"MEAN_ANOMALY":275.537,"EPHEMERIS_TYPE":0,"CLASSIFICATION_TYPE":"U","NORAD_CAT_ID":55093,"ELEMENT_SET_NO":999,"REV_AT_EPOCH":17710,"BSTAR":0.00030435197,"MEAN_MOTION_DOT":0.00011392,"MEAN_MOTION_DDOT":0},{"OBJECT_NAME":"KUIPER-00249","OBJECT_ID":"2025-301X","EPOCH":"2026-03-09T05:18:48.483072","MEAN_MOTION":15.38089031,"ECCENTRICITY":0.0010501,"INCLINATION":51.8645,"RA_OF_ASC_NODE":67.547,"ARG_OF_PERICENTER":44.4239,"MEAN_ANOMALY":315.7589,"EPHEMERIS_TYPE":0,"CLASSIFICATION_TYPE":"U","NORAD_CAT_ID":67154,"ELEMENT_SET_NO":999,"REV_AT_EPOCH":1366,"BSTAR":0.00055185506,"MEAN_MOTION_DOT":0.0002071,"MEAN_MOTION_DDOT":0}]
